TDRS 3                  
1 19548U 88091B   24262.10813271 -.00000303  00000+0  00000+0 0  9997
2 19548  13.0919 345.2652 0035006 334.8467  27.5479  1.00272500118986
HST                     
1 20580U 90037B   24261.85638391  .00013888  00000+0  62645-3 0  9995
2 20580  28.4678  83.5421 0002820 347.1069  12.9451 15.19505013691139
TDRS 5                  
1 21639U 91054B   24260.21975057 -.00000301  00000+0  00000+0 0  9993
2 21639  14.1511 358.4321 0006139 225.0145 149.0592  1.00268371121316
TDRS 6                  
1 22314U 93003B   24262.15412382 -.00000298  00000+0  00000+0 0  9997
2 22314  14.1666   1.7246 0011608 173.9886 191.4469  1.00276730115991
TDRS 7                  
1 23613U 95035B   24261.73521769 -.00000204  00000+0  00000+0 0  9997
2 23613  13.6437 352.5739 0024663  77.1718 276.8796  1.00268148106852
ISS (ZARYA)             
1 25544U 98067A   24262.38035924  .00025315  00000+0  46099-3 0  9996
2 25544  51.6373 213.7667 0007508   5.1642 354.9422 15.49296236473007
LANDSAT 7               
1 25682U 99020A   24262.53120612  .00001334  00000+0  28130-3 0  9996
2 25682  97.8840 284.9076 0001808  87.4372  70.3398 14.60945186352829
TERRA                   
1 25994U 99068A   24262.51432323  .00001487  00000+0  31930-3 0  9998
2 25994  98.0392 323.2321 0003606  80.8900  27.5501 14.59994897316788
TDRS 8                  
1 26388U 00034A   24262.05852111  .00000093  00000+0  00000+0 0  9993
2 26388  11.6750  36.4520 0005381 192.3399 342.2104  1.00275501 88780
TIMED                   
1 26998U 01055B   24261.93347038  .00004364  00000+0  43323-3 0  9991
2 26998  74.0690  75.5293 0000387 134.6725 225.4489 14.92065379235650
AQUA                    
1 27424U 02022A   24262.53308493  .00002826  00000+0  60007-3 0  9999
2 27424  98.3380 212.3167 0001736 107.3166 294.4568 14.59897447190337
TDRS 10                 
1 27566U 02055A   24262.23449382  .00000083  00000+0  00000+0 0  9998
2 27566   9.7330  44.6881 0002296 347.7594 238.5837  1.00266955 79836
SORCE                   
1 27651U 03004A   24262.17080055  .00008697  00000+0  76178-3 0  9991
2 27651  39.9920 279.4189 0021349 177.6499 182.4396 14.96449961176197
AURA                    
1 28376U 04026A   24262.51438255  .00002889  00000+0  62352-3 0  9994
2 28376  98.2570 206.7544 0002294 104.2979 255.8475 14.59120102 73322
SWIFT                   
1 28485U 04047A   24262.20029928  .00027773  00000+0  11218-2 0  9990
2 28485  20.5553 233.6782 0007017  44.0978 316.0018 15.22897083 88502
THEMIS A                
1 30580U 07004A   24261.68515474 -.00000291  00000+0  00000+0 0  9993
2 30580   9.0485 258.1110 8379907 337.0824   0.6775  0.87835235 60363
THEMIS D                
1 30797U 07004D   24262.52492630 -.00000205  00000+0  00000+0 0  9990
2 30797   4.6117 257.5059 8371507 341.8594 254.7818  0.87836499 59895
THEMIS E                
1 30798U 07004E   24261.57090865 -.00000199  00000+0  00000+0 0  9991
2 30798   6.6213 277.6870 8360064 322.7022 327.3938  0.87833828 60300
FGRST (GLAST)           
1 33053U 08029A   24262.16483380  .00008476  00000+0  39030-3 0  9994
2 33053  25.5823 290.3051 0010025  41.8106 318.3195 15.17935358898933
TDRS 11                 
1 39070U 13004A   24262.52976059  .00000074  00000+0  00000+0 0  9995
2 39070   2.7979  14.8609 0003707  65.9401 293.6135  1.00278358 42600
TDRS 12                 
1 39504U 14004A   24262.15516639 -.00000276  00000+0  00000+0 0  9996
2 39504   3.5677   5.5989 0006030 212.5210 154.3930  1.00268322 39066
GPM-CORE                
1 39574U 14009C   24262.16202975  .00019175  00000+0  41302-3 0  9995
2 39574  64.9817 281.7528 0011885 269.9851  89.9927 15.44610767599436
MMS 1                   
1 40482U 15011A   24262.58334491 -.00001802  00000+0  00000+0 0  9999
2 40482  53.8310   4.9343 9018639 151.7084 320.2730  0.28322638 15642
MMS 2                   
1 40483U 15011B   24262.58334491 -.00001802  00000+0  00000+0 0  9990
2 40483  53.8307   4.9343 9018238 151.7091 319.1503  0.28327991 15622
MMS 3                   
1 40484U 15011C   24262.58334491 -.00001802  00000+0  00000+0 0  9991
2 40484  53.8320   4.9337 9018256 151.7091 319.2732  0.28327349 15623
MMS 4                   
1 40485U 15011D   24262.58334491 -.00001796  00000+0  00000+0 0  9994
2 40485  53.8242   4.9332 9014431 151.7208 309.4295  0.28391584 15620
TDRS 13                 
1 42915U 17047A   24262.16098737 -.00000109  00000+0  00000+0 0  9996
2 42915   3.5751 346.6342 0015460 129.1427 288.3438  1.00271396 25994
NOAA 20 (JPSS-1)        
1 43013U 17073A   24262.52176100  .00000297  00000+0  16143-3 0  9992
2 43013  98.7101 198.8917 0001059  20.0387 340.0831 14.19589942354145
